{
  "type": "FeatureCollection",
  "features": [
    {
      "type": "Feature",
      "properties": {
        "norad_id": 36744,
        "name": "COMS 1",
        "group": "weather",
        "lat": 4.083746733272478,
        "lon": 147.40192256901395,
        "alt_km": 35787.63241474268,
        "timestamp": "2025-12-16T19:34:23.907386+00:00",
        "meta_object_name": "COMS 1",
        "meta_object_id": "2010-032A",
        "meta_epoch": "2025-12-15T13:59:49.717248",
        "meta_mean_motion": 1.00271913,
        "meta_eccentricity": 8.134e-05,
        "meta_inclination": 4.3476,
        "meta_ra_of_asc_node": 77.9671,
        "meta_arg_of_pericenter": 193.8202,
        "meta_mean_anomaly": 150.8255,
        "meta_ephemeris_type": 0,
        "meta_classification_type": "U",
        "meta_norad_cat_id": 36744,
        "meta_element_set_no": 999,
        "meta_rev_at_epoch": 4924,
        "meta_bstar": 0,
        "meta_mean_motion_dot": -3.25e-06,
        "meta_mean_motion_ddot": 0,
        "tle_line1": "1 36744U 10032A   25349.58321432 -.00000325  00000+0  00000+0 0  9990",
        "tle_line2": "2 36744   4.3476  77.9671 0000813 193.8202 150.8255  1.00271913 49243"
      },
      "geometry": {
        "type": "Point",
        "coordinates": [
          147.40192256901395,
          4.083746733272478
        ]
      }
    },
    {
      "type": "Feature",
      "properties": {
        "norad_id": 37214,
        "name": "FENGYUN 3B",
        "group": "weather",
        "lat": -78.06082102191338,
        "lon": 162.33733551540152,
        "alt_km": 848.7106865540391,
        "timestamp": "2025-12-16T19:34:23.907398+00:00",
        "meta_object_name": "FENGYUN 3B",
        "meta_object_id": "2010-059A",
        "meta_epoch": "2025-12-16T00:12:24.285024",
        "meta_mean_motion": 14.14789275,
        "meta_eccentricity": 0.0021935,
        "meta_inclination": 98.9911,
        "meta_ra_of_asc_node": 30.0088,
        "meta_arg_of_pericenter": 348.6199,
        "meta_mean_anomaly": 126.076,
        "meta_ephemeris_type": 0,
        "meta_classification_type": "U",
        "meta_norad_cat_id": 37214,
        "meta_element_set_no": 999,
        "meta_rev_at_epoch": 78152,
        "meta_bstar": -6.5912336e-05,
        "meta_mean_motion_dot": -1.73e-06,
        "meta_mean_motion_ddot": 0,
        "tle_line1": "1 37214U 10059A   25350.00861441 -.00000173  00000+0 -65912-4 0  9990",
        "tle_line2": "2 37214  98.9911  30.0088 0021935 348.6199 126.0760 14.14789275781528"
      },
      "geometry": {
        "type": "Point",
        "coordinates": [
          162.33733551540152,
          -78.06082102191338
        ]
      }
    },
    {
      "type": "Feature",
      "properties": {
        "norad_id": 37849,
        "name": "SUOMI NPP",
        "group": "weather",
        "lat": 7.46096972957461,
        "lon": 109.27970812733442,
        "alt_km": 828.0464076828885,
        "timestamp": "2025-12-16T19:34:23.907410+00:00",
        "meta_object_name": "SUOMI NPP",
        "meta_object_id": "2011-061A",
        "meta_epoch": "2025-12-15T22:27:51.272640",
        "meta_mean_motion": 14.19515133,
        "meta_eccentricity": 0.00023431,
        "meta_inclination": 98.7776,
        "meta_ra_of_asc_node": 287.2488,
        "meta_arg_of_pericenter": 114.4679,
        "meta_mean_anomaly": 245.6741,
        "meta_ephemeris_type": 0,
        "meta_classification_type": "U",
        "meta_norad_cat_id": 37849,
        "meta_element_set_no": 999,
        "meta_rev_at_epoch": 73244,
        "meta_bstar": 6.5068248e-05,
        "meta_mean_motion_dot": 9.3e-07,
        "meta_mean_motion_ddot": 0,
        "tle_line1": "1 37849U 11061A   25349.93601010  .00000093  00000+0  65068-4 0  9993",
        "tle_line2": "2 37849  98.7776 287.2488 0002343 114.4679 245.6741 14.19515133732442"
      },
      "geometry": {
        "type": "Point",
        "coordinates": [
          109.27970812733442,
          7.46096972957461
        ]
      }
    },
    {
      "type": "Feature",
      "properties": {
        "norad_id": 38552,
        "name": "METEOSAT-10 (MSG-3)",
        "group": "weather",
        "lat": -2.8319283004612537,
        "lon": 19.60944668936342,
        "alt_km": 35783.47292090674,
        "timestamp": "2025-12-16T19:34:23.907423+00:00",
        "meta_object_name": "METEOSAT-10 (MSG-3)",
        "meta_object_id": "2012-035B",
        "meta_epoch": "2025-12-15T21:56:54.533184",
        "meta_mean_motion": 1.00275899,
        "meta_eccentricity": 7.151e-05,
        "meta_inclination": 4.2361,
        "meta_ra_of_asc_node": 61.7164,
        "meta_arg_of_pericenter": 264.5469,
        "meta_mean_anomaly": 87.9948,
        "meta_ephemeris_type": 0,
        "meta_classification_type": "U",
        "meta_norad_cat_id": 38552,
        "meta_element_set_no": 999,
        "meta_rev_at_epoch": 4901,
        "meta_bstar": 0,
        "meta_mean_motion_dot": 1.5e-07,
        "meta_mean_motion_ddot": 0,
        "tle_line1": "1 38552U 12035B   25349.91452006  .00000015  00000+0  00000+0 0  9998",
        "tle_line2": "2 38552   4.2361  61.7164 0000715 264.5469  87.9948  1.00275899 49015"
      },
      "geometry": {
        "type": "Point",
        "coordinates": [
          19.60944668936342,
          -2.8319283004612537
        ]
      }
    },
    {
      "type": "Feature",
      "properties": {
        "norad_id": 38771,
        "name": "METOP-B",
        "group": "weather",
        "lat": 51.32923953197026,
        "lon": 29.70151539206998,
        "alt_km": 815.5152870395495,
        "timestamp": "2025-12-16T19:34:23.907434+00:00",
        "meta_object_name": "METOP-B",
        "meta_object_id": "2012-049A",
        "meta_epoch": "2025-12-15T21:21:58.470048",
        "meta_mean_motion": 14.21409483,
        "meta_eccentricity": 0.00030262,
        "meta_inclination": 98.6797,
        "meta_ra_of_asc_node": 39.7956,
        "meta_arg_of_pericenter": 137.3131,
        "meta_mean_anomaly": 222.8282,
        "meta_ephemeris_type": 0,
        "meta_classification_type": "U",
        "meta_norad_cat_id": 38771,
        "meta_element_set_no": 999,
        "meta_rev_at_epoch": 68722,
        "meta_bstar": 8.0174834e-05,
        "meta_mean_motion_dot": 1.32e-06,
        "meta_mean_motion_ddot": 0,
        "tle_line1": "1 38771U 12049A   25349.89026007  .00000132  00000+0  80175-4 0  9997",
        "tle_line2": "2 38771  98.6797  39.7956 0003026 137.3131 222.8282 14.21409483687220"
      },
      "geometry": {
        "type": "Point",
        "coordinates": [
          29.70151539206998,
          51.32923953197026
        ]
      }
    },
    {
      "type": "Feature",
      "properties": {
        "norad_id": 39216,
        "name": "INSAT-3D",
        "group": "weather",
        "lat": 1.3114255008885771,
        "lon": 148.76302194552466,
        "alt_km": 35788.024485322574,
        "timestamp": "2025-12-16T19:34:23.907446+00:00",
        "meta_object_name": "INSAT-3D",
        "meta_object_id": "2013-038B",
        "meta_epoch": "2025-12-15T20:51:08.332416",
        "meta_mean_motion": 1.00268682,
        "meta_eccentricity": 0.00012734,
        "meta_inclination": 1.4526,
        "meta_ra_of_asc_node": 84.9619,
        "meta_arg_of_pericenter": 165.5612,
        "meta_mean_anomaly": 276.5343,
        "meta_ephemeris_type": 0,
        "meta_classification_type": "U",
        "meta_norad_cat_id": 39216,
        "meta_element_set_no": 999,
        "meta_rev_at_epoch": 4524,
        "meta_bstar": 0,
        "meta_mean_motion_dot": -3.17e-06,
        "meta_mean_motion_ddot": 0,
        "tle_line1": "1 39216U 13038B   25349.86884644 -.00000317  00000+0  00000+0 0  9997",
        "tle_line2": "2 39216   1.4526  84.9619 0001273 165.5612 276.5343  1.00268682 45245"
      },
      "geometry": {
        "type": "Point",
        "coordinates": [
          148.76302194552466,
          1.3114255008885771
        ]
      }
    },
    {
      "type": "Feature",
      "properties": {
        "norad_id": 39260,
        "name": "FENGYUN 3C",
        "group": "weather",
        "lat": -35.24072593329694,
        "lon": 142.24815928915294,
        "alt_km": 837.2622934260635,
        "timestamp": "2025-12-16T19:34:23.907458+00:00",
        "meta_object_name": "FENGYUN 3C",
        "meta_object_id": "2013-052A",
        "meta_epoch": "2025-12-15T22:12:12.765600",
        "meta_mean_motion": 14.15697282,
        "meta_eccentricity": 0.00144476,
        "meta_inclination": 98.4766,
        "meta_ra_of_asc_node": 327.449,
        "meta_arg_of_pericenter": 186.6565,
        "meta_mean_anomaly": 173.442,
        "meta_ephemeris_type": 0,
        "meta_classification_type": "U",
        "meta_norad_cat_id": 39260,
        "meta_element_set_no": 999,
        "meta_rev_at_epoch": 63263,
        "meta_bstar": 7.9833886e-05,
        "meta_mean_motion_dot": 1.16e-06,
        "meta_mean_motion_ddot": 0,
        "tle_line1": "1 39260U 13052A   25349.92514775  .00000116  00000+0  79834-4 0  9996",
        "tle_line2": "2 39260  98.4766 327.4490 0014447 186.6565 173.4420 14.15697282632634"
      },
      "geometry": {
        "type": "Point",
        "coordinates": [
          142.24815928915294,
          -35.24072593329694
        ]
      }
    }
  ]
}